{"type": "FeatureCollection", "features": [ {"type": "Feature", "properties": {"norad_id": 39586, "name": "COSMOS 2251 DEB", "group": "cosmos-2251-debris", "lat": 9.40113196597446, "lon": -113.24679214610876, "alt_km": 751.5155576489515, "timestamp": "2025-12-03T22:42:33.030708+00:00", "meta": {"OBJECT_NAME": "COSMOS 2251 DEB", "OBJECT_ID": "1993-036BUR", "EPOCH": "2025-12-03T00:45:17.484768", "MEAN_MOTION": 14.21190507, "ECCENTRICITY": 0.01005019, "INCLINATION": 74.0096, "RA_OF_ASC_NODE": 245.6735, "ARG_OF_PERICENTER": 22.6165, "MEAN_ANOMALY": 349.1523, "EPHEMERIS_TYPE": 0, "CLASSIFICATION_TYPE": "U", "NORAD_CAT_ID": 39586, "ELEMENT_SET_NO": 999, "REV_AT_EPOCH": 60834, "BSTAR": 0.00065077567, "MEAN_MOTION_DOT": 1.465e-05, "MEAN_MOTION_DDOT": 0}, "tle": {"line1": "1 39586U 93036BUR 25337.03145237  .00001465  00000+0  65078-3 0  9991", "line2": "2 39586  74.0096 245.6735 0100501  22.6165 349.1523 14.21190507608348"}}, "geometry": {"type": "Point", "coordinates": [-113.24679214610876, 9.40113196597446]}}, {"type": "Feature", "properties": {"norad_id": 39591, "name": "COSMOS 2251 DEB", "group": "cosmos-2251-debris", "lat": -31.367451460488436, "lon": -106.97535588255202, "alt_km": 745.4313314563115, "timestamp": "2025-12-03T22:42:33.030717+00:00", "meta": {"OBJECT_NAME": "COSMOS 2251 DEB", "OBJECT_ID": "1993-036BUW", "EPOCH": "2025-12-02T01:57:06.430752", "MEAN_MOTION": 14.41775079, "ECCENTRICITY": 0.00288186, "INCLINATION": 74.0265, "RA_OF_ASC_NODE": 266.5373, "ARG_OF_PERICENTER": 22.6115, "MEAN_ANOMALY": 349.3407, "EPHEMERIS_TYPE": 0, "CLASSIFICATION_TYPE": "U", "NORAD_CAT_ID": 39591, "ELEMENT_SET_NO": 999, "REV_AT_EPOCH": 61623, "BSTAR": 0.00055457771, "MEAN_MOTION_DOT": 1.794e-05, "MEAN_MOTION_DDOT": 0}, "tle": {"line1": "1 39591U 93036BUW 25336.08132443  .00001794  00000+0  55458-3 0  9992", "line2": "2 39591  74.0265 266.5373 0028818  22.6115 349.3407 14.41775079616232"}}, "geometry": {"type": "Point", "coordinates": [-106.97535588255202, -31.367451460488436]}}, {"type": "Feature", "properties": {"norad_id": 40218, "name": "COSMOS 2251 DEB", "group": "cosmos-2251-debris", "lat": -46.27884647807407, "lon": 102.54505767219504, "alt_km": 765.8323913463082, "timestamp": "2025-12-03T22:42:33.030726+00:00", "meta": {"OBJECT_NAME": "COSMOS 2251 DEB", "OBJECT_ID": "1993-036BUX", "EPOCH": "2025-12-02T02:20:48.132384", "MEAN_MOTION": 14.41546301, "ECCENTRICITY": 0.00163619, "INCLINATION": 74.0309, "RA_OF_ASC_NODE": 268.5457, "ARG_OF_PERICENTER": 353.795, "MEAN_ANOMALY": 6.3, "EPHEMERIS_TYPE": 0, "CLASSIFICATION_TYPE": "U", "NORAD_CAT_ID": 40218, "ELEMENT_SET_NO": 999, "REV_AT_EPOCH": 58708, "BSTAR": 0.00047133972, "MEAN_MOTION_DOT": 1.508e-05, "MEAN_MOTION_DDOT": 0}, "tle": {"line1": "1 40218U 93036BUX 25336.09777931  .00001508  00000+0  47134-3 0  9993", "line2": "2 40218  74.0309 268.5457 0016361 353.7950   6.3000 14.41546301587082"}}, "geometry": {"type": "Point", "coordinates": [102.54505767219504, -46.27884647807407]}}, {"type": "Feature", "properties": {"norad_id": 40223, "name": "COSMOS 2251 DEB", "group": "cosmos-2251-debris", "lat": 57.43390035006258, "lon": 133.58022431161365, "alt_km": 561.0457930740349, "timestamp": "2025-12-03T22:42:33.030735+00:00", "meta": {"OBJECT_NAME": "COSMOS 2251 DEB", "OBJECT_ID": "1993-036BVC", "EPOCH": "2025-11-30T19:57:11.530080", "MEAN_MOTION": 15.0129808, "ECCENTRICITY": 0.00135519, "INCLINATION": 73.9359, "RA_OF_ASC_NODE": 113.1436, "ARG_OF_PERICENTER": 301.6161, "MEAN_ANOMALY": 209.1516, "EPHEMERIS_TYPE": 0, "CLASSIFICATION_TYPE": "U", "NORAD_CAT_ID": 40223, "ELEMENT_SET_NO": 999, "REV_AT_EPOCH": 59195, "BSTAR": 0.0064720663, "MEAN_MOTION_DOT": 0.00084415, "MEAN_MOTION_DDOT": 0}, "tle": {"line1": "1 40223U 93036BVC 25334.83138345  .00084415  00000+0  64721-2 0  9997", "line2": "2 40223  73.9359 113.1436 0013551 301.6161 209.1516 15.01298080591958"}}, "geometry": {"type": "Point", "coordinates": [133.58022431161365, 57.43390035006258]}}, {"type": "Feature", "properties": {"norad_id": 40228, "name": "COSMOS 2251 DEB", "group": "cosmos-2251-debris", "lat": 39.99895034370265, "lon": 82.90482784569642, "alt_km": 767.56968265249, "timestamp": "2025-12-03T22:42:33.030744+00:00", "meta": {"OBJECT_NAME": "COSMOS 2251 DEB", "OBJECT_ID": "1993-036BVH", "EPOCH": "2025-11-30T14:54:47.611296", "MEAN_MOTION": 14.40947575, "ECCENTRICITY": 0.0023645, "INCLINATION": 74.0546, "RA_OF_ASC_NODE": 282.9283, "ARG_OF_PERICENTER": 346.4377, "MEAN_ANOMALY": 191.0914, "EPHEMERIS_TYPE": 0, "CLASSIFICATION_TYPE": "U", "NORAD_CAT_ID": 40228, "ELEMENT_SET_NO": 999, "REV_AT_EPOCH": 58746, "BSTAR": 0.00037702, "MEAN_MOTION_DOT": 1.188e-05, "MEAN_MOTION_DDOT": 0}, "tle": {"line1": "1 40228U 93036BVH 25334.62138439  .00001188  00000+0  37702-3 0  9999", "line2": "2 40228  74.0546 282.9283 0023645 346.4377 191.0914 14.40947575587463"}}, "geometry": {"type": "Point", "coordinates": [82.90482784569642, 39.99895034370265]}}, {"type": "Feature", "properties": {"norad_id": 40230, "name": "COSMOS 2251 DEB", "group": "cosmos-2251-debris", "lat": 36.25350975378475, "lon": -104.51555571957888, "alt_km": 726.7484898909051, "timestamp": "2025-12-03T22:42:33.030753+00:00", "meta": {"OBJECT_NAME": "COSMOS 2251 DEB", "OBJECT_ID": "1993-036BVK", "EPOCH": "2025-12-01T11:25:53.279904", "MEAN_MOTION": 14.49219846, "ECCENTRICITY": 0.00191733, "INCLINATION": 74.0459, "RA_OF_ASC_NODE": 248.0026, "ARG_OF_PERICENTER": 306.9288, "MEAN_ANOMALY": 170.1054, "EPHEMERIS_TYPE": 0, "CLASSIFICATION_TYPE": "U", "NORAD_CAT_ID": 40230, "ELEMENT_SET_NO": 999, "REV_AT_EPOCH": 58808, "BSTAR": 0.00090515824, "MEAN_MOTION_DOT": 3.43e-05, "MEAN_MOTION_DDOT": 0}, "tle": {"line1": "1 40230U 93036BVK 25335.47631111  .00003430  00000+0  90516-3 0  9995", "line2": "2 40230  74.0459 248.0026 0019173 306.9288 170.1054 14.49219846588084"}}, "geometry": {"type": "Point", "coordinates": [-104.51555571957888, 36.25350975378475]}}, {"type": "Feature", "properties": {"norad_id": 40233, "name": "COSMOS 2251 DEB", "group": "cosmos-2251-debris", "lat": -60.04046189980427, "lon": 89.95332262143707, "alt_km": 711.1267180700006, "timestamp": "2025-12-03T22:42:33.030762+00:00", "meta": {"OBJECT_NAME": "COSMOS 2251 DEB", "OBJECT_ID": "1993-036BVN", "EPOCH": "2025-11-29T16:55:06.040992", "MEAN_MOTION": 14.58149893, "ECCENTRICITY": 0.00465907, "INCLINATION": 73.9381, "RA_OF_ASC_NODE": 128.0565, "ARG_OF_PERICENTER": 205.1304, "MEAN_ANOMALY": 154.7594, "EPHEMERIS_TYPE": 0, "CLASSIFICATION_TYPE": "U", "NORAD_CAT_ID": 40233, "ELEMENT_SET_NO": 999, "REV_AT_EPOCH": 58947, "BSTAR": 0.0013059078, "MEAN_MOTION_DOT": 6.085e-05, "MEAN_MOTION_DDOT": 0}, "tle": {"line1": "1 40233U 93036BVN 25333.70493103  .00006085  00000+0  13059-2 0  9994", "line2": "2 40233  73.9381 128.0565 0046590 205.1304 154.7594 14.58149893589471"}}, "geometry": {"type": "Point", "coordinates": [89.95332262143707, -60.04046189980427]}}, {"type": "Feature", "properties": {"norad_id": 40236, "name": "COSMOS 2251 DEB", "group": "cosmos-2251-debris", "lat": -65.98142611066021, "lon": 19.18974236850379, "alt_km": 1504.279900788917, "timestamp": "2025-12-03T22:42:33.030771+00:00", "meta": {"OBJECT_NAME": "COSMOS 2251 DEB", "OBJECT_ID": "1993-036BVR", "EPOCH": "2025-11-24T19:56:56.097312", "MEAN_MOTION": 13.24604738, "ECCENTRICITY": 0.0536049, "INCLINATION": 73.5357, "RA_OF_ASC_NODE": 171.9764, "ARG_OF_PERICENTER": 53.9086, "MEAN_ANOMALY": 311.0422, "EPHEMERIS_TYPE": 0, "CLASSIFICATION_TYPE": "U", "NORAD_CAT_ID": 40236, "ELEMENT_SET_NO": 999, "REV_AT_EPOCH": 53387, "BSTAR": 0.0012678, "MEAN_MOTION_DOT": 1.163e-05, "MEAN_MOTION_DDOT": 0}, "tle": {"line1": "1 40236U 93036BVR 25328.83120483  .00001163  00000+0  12678-2 0  9991", "line2": "2 40236  73.5357 171.9764 0536049  53.9086 311.0422 13.24604738533877"}}, "geometry": {"type": "Point", "coordinates": [19.18974236850379, -65.98142611066021]}}, {"type": "Feature", "properties": {"norad_id": 40238, "name": "COSMOS 2251 DEB", "group": "cosmos-2251-debris", "lat": -28.055146121096847, "lon": 68.29861898038114, "alt_km": 1076.7125084922309, "timestamp": "2025-12-03T22:42:33.030781+00:00", "meta": {"OBJECT_NAME": "COSMOS 2251 DEB", "OBJECT_ID": "1993-036BVT", "EPOCH": "2025-12-02T23:17:45.546720", "MEAN_MOTION": 13.25083413, "ECCENTRICITY": 0.05497645, "INCLINATION": 73.9879, "RA_OF_ASC_NODE": 78.5988, "ARG_OF_PERICENTER": 52.4798, "MEAN_ANOMALY": 312.4962, "EPHEMERIS_TYPE": 0, "CLASSIFICATION_TYPE": "U", "NORAD_CAT_ID": 40238, "ELEMENT_SET_NO": 999, "REV_AT_EPOCH": 53907, "BSTAR": 0.0016280905, "MEAN_MOTION_DOT": 1.579e-05, "MEAN_MOTION_DDOT": 0}, "tle": {"line1": "1 40238U 93036BVT 25336.97066605  .00001579  00000+0  16281-2 0  9997", "line2": "2 40238  73.9879  78.5988 0549764  52.4798 312.4962 13.25083413539078"}}, "geometry": {"type": "Point", "coordinates": [68.29861898038114, -28.055146121096847]}}, {"type": "Feature", "properties": {"norad_id": 40239, "name": "COSMOS 2251 DEB", "group": "cosmos-2251-debris", "lat": 40.467938804873405, "lon": 98.5350074556214, "alt_km": 684.1014334342935, "timestamp": "2025-12-03T22:42:33.030791+00:00", "meta": {"OBJECT_NAME": "COSMOS 2251 DEB", "OBJECT_ID": "1993-036BVU", "EPOCH": "2025-12-03T04:06:23.351040", "MEAN_MOTION": 14.61919535, "ECCENTRICITY": 0.00844774, "INCLINATION": 74.0313, "RA_OF_ASC_NODE": 294.1581, "ARG_OF_PERICENTER": 48.0204, "MEAN_ANOMALY": 330.7965, "EPHEMERIS_TYPE": 0, "CLASSIFICATION_TYPE": "U", "NORAD_CAT_ID": 40239, "ELEMENT_SET_NO": 999, "REV_AT_EPOCH": 59471, "BSTAR": 0.00063426596, "MEAN_MOTION_DOT": 3.31e-05, "MEAN_MOTION_DDOT": 0}, "tle": {"line1": "1 40239U 93036BVU 25337.17110360  .00003310  00000+0  63427-3 0  9999", "line2": "2 40239  74.0313 294.1581 0084477  48.0204 330.7965 14.61919535594719"}}, "geometry": {"type": "Point", "coordinates": [98.5350074556214, 40.467938804873405]}}]}